$$SOE
2460728.500000000, A.D. 2025-Feb-22 00:00:00.0000, -3.710376702763695E+08, 3.029735295994822E+08, -2.904465242696655E+07,
2460735.500000000, A.D. 2025-Mar-01 00:00:00.0000, -3.766980983661206E+08, 2.947599980400752E+08, -3.018421190209223E+07,
2460742.500000000, A.D. 2025-Mar-08 00:00:00.0000, -3.821923410739798E+08, 2.864164775604861E+08, -3.131045689403491E+07,
2460749.500000000, A.D. 2025-Mar-15 00:00:00.0000, -3.875172996982788E+08, 2.779461441653975E+08, -3.242283578250265E+07,
2460756.500000000, A.D. 2025-Mar-22 00:00:00.0000, -3.926699274262667E+08, 2.693522581153299E+08, -3.352079847595306E+07,
2460763.500000000, A.D. 2025-Mar-29 00:00:00.0000, -3.976472324959231E+08, 2.606381618264772E+08, -3.460379677252565E+07,
2460770.500000000, A.D. 2025-Apr-05 00:00:00.0000, -4.024462796972446E+08, 2.518072785852254E+08, -3.567128481067295E+07,
2460777.500000000, A.D. 2025-Apr-12 00:00:00.0000, -4.070641921393016E+08, 2.428631121797587E+08, -3.672271942507708E+07,
2460784.500000000, A.D. 2025-Apr-19 00:00:00.0000, -4.114981534691331E+08, 2.338092465669325E+08, -3.775756046337886E+07,
2460791.500000000, A.D. 2025-Apr-26 00:00:00.0000, -4.157454102680430E+08, 2.246493453698901E+08, -3.877527110544644E+07,
2460798.500000000, A.D. 2025-May-03 00:00:00.0000, -4.198032745085695E+08, 2.153871512232004E+08, -3.977531819403417E+07,
2460805.500000000, A.D. 2025-May-10 00:00:00.0000, -4.236691260406426E+08, 2.060264849714880E+08, -4.075717257866639E+07,
2460812.500000000, A.D. 2025-May-17 00:00:00.0000, -4.273404150673754E+08, 1.965712446778391E+08, -4.172030947934958E+07,
2460819.500000000, A.D. 2025-May-24 00:00:00.0000, -4.308146644336647E+08, 1.870254043849048E+08, -4.266420889033706E+07,
2460826.500000000, A.D. 2025-May-31 00:00:00.0000, -4.340894713066864E+08, 1.773930129370637E+08, -4.358835603659044E+07,
2460833.500000000, A.D. 2025-Jun-07 00:00:00.0000, -4.371625086460652E+08, 1.676781940656378E+08, -4.449224174740198E+07,
2460840.500000000, A.D. 2025-Jun-14 00:00:00.0000, -4.400315288260258E+08, 1.578851470677874E+08, -4.537536258472341E+07,
2460847.500000000, A.D. 2025-Jun-21 00:00:00.0000, -4.426943681905556E+08, 1.480181448066338E+08, -4.623722110519806E+07,
2460854.500000000, A.D. 2025-Jun-28 00:00:00.0000, -4.451489494083750E+08, 1.380815307960439E+08, -4.707732639793400E+07,
2460861.500000000, A.D. 2025-Jul-05 00:00:00.0000, -4.473932831391988E+08, 1.280797175233087E+08, -4.789519458178435E+07,
2460868.500000000, A.D. 2025-Jul-12 00:00:00.0000, -4.494254701993584E+08, 1.180171852017111E+08, -4.869034921846601E+07,
2460875.500000000, A.D. 2025-Jul-19 00:00:00.0000, -4.512437040341823E+08, 1.078984803767185E+08, -4.946232170573457E+07,
2460882.500000000, A.D. 2025-Jul-26 00:00:00.0000, -4.528462732830217E+08, 9.772821432819766E+07, -5.021065167401509E+07,
2460889.500000000, A.D. 2025-Aug-02 00:00:00.0000, -4.542315643669010E+08, 8.751106128906056E+07, -5.093488739008188E+07,
2460896.500000000, A.D. 2025-Aug-09 00:00:00.0000, -4.553980640706729E+08, 7.725175646455179E+07, -5.163458617044718E+07,
2460903.500000000, A.D. 2025-Aug-16 00:00:00.0000, -4.563443620379548E+08, 6.695509378804669E+07, -5.230931481596281E+07,
2460910.500000000, A.D. 2025-Aug-23 00:00:00.0000, -4.570691528812473E+08, 5.662592342918268E+07, -5.295865009232759E+07,
2460917.500000000, A.D. 2025-Aug-30 00:00:00.0000, -4.575712375729588E+08, 4.626914976779520E+07, -5.358217922741297E+07,
2460924.500000000, A.D. 2025-Sep-06 00:00:00.0000, -4.578495255300943E+08, 3.588973083312684E+07, -5.417950021267691E+07,
2460931.500000000, A.D. 2025-Sep-13 00:00:00.0000, -4.579030390592033E+08, 2.549267672476009E+07, -5.475022195778026E+07,
2460938.500000000, A.D. 2025-Sep-20 00:00:00.0000, -4.577309168845155E+08, 1.508304537173528E+07, -5.529396473252954E+07,
2460945.500000000, A.D. 2025-Sep-27 00:00:00.0000, -4.573324156942889E+08, 4.665938742860001E+06, -5.581036073773046E+07,
2460952.500000000, A.D. 2025-Oct-04 00:00:00.0000, -4.567069117151480E+08, -5.753499952601183E+06, -5.629905457465239E+07,
2460959.500000000, A.D. 2025-Oct-11 00:00:00.0000, -4.558539026832436E+08, -1.617008901685105E+07, -5.675970365537051E+07,
2460966.500000000, A.D. 2025-Oct-18 00:00:00.0000, -4.547730099243736E+08, -2.657861124092168E+07, -5.719197860212743E+07,
2460973.500000000, A.D. 2025-Oct-25 00:00:00.0000, -4.534639803984600E+08, -3.697381709372991E+07, -5.759556364705686E+07,
2460980.500000000, A.D. 2025-Nov-01 00:00:00.0000, -4.519266886628677E+08, -4.735042810406014E+07, -5.797015703376499E+07,
2460987.500000000, A.D. 2025-Nov-08 00:00:00.0000, -4.501611387130567E+08, -5.770314046342137E+07, -5.831547142537080E+07,
2460994.500000000, A.D. 2025-Nov-15 00:00:00.0000, -4.481674655451450E+08, -6.802662890515161E+07, -5.863123433603118E+07,
2461001.500000000, A.D. 2025-Nov-22 00:00:00.0000, -4.459459360302297E+08, -7.831555063712779E+07, -5.891718860364358E+07,
2461008.500000000, A.D. 2025-Nov-29 00:00:00.0000, -4.434969492470326E+08, -8.856454819102120E+07, -5.917309279602028E+07,
2461015.500000000, A.D. 2025-Dec-06 00:00:00.0000, -4.408210385452124E+08, -9.876825132215811E+07, -5.939872135244580E+07,
2461022.500000000, A.D. 2025-Dec-13 00:00:00.0000, -4.379188749029589E+08, -1.089212813275785E+08, -5.959386477615621E+07,
2461029.500000000, A.D. 2025-Dec-20 00:00:00.0000, -4.347912680834103E+08, -1.190182567538795E+08, -5.975833011462026E+07,
2461036.500000000, A.D. 2025-Dec-27 00:00:00.0000, -4.314391666585934E+08, -1.290537978966132E+08, -5.989194141637957E+07,
2461043.500000000, A.D. 2026-Jan-03 00:00:00.0000, -4.278636583535372E+08, -1.390225307006725E+08, -5.999454007955766E+07,
2461050.500000000, A.D. 2026-Jan-10 00:00:00.0000, -4.240659705953184E+08, -1.489190907351583E+08, -6.006598515659487E+07,
2461057.500000000, A.D. 2026-Jan-17 00:00:00.0000, -4.200474710300980E+08, -1.587381273282982E+08, -6.010615364321671E+07,
2461064.500000000, A.D. 2026-Jan-24 00:00:00.0000, -4.158096679259770E+08, -1.684743078329313E+08, -6.011494075599165E+07,
2461071.500000000, A.D. 2026-Jan-31 00:00:00.0000, -4.113542104339020E+08, -1.781223220227417E+08, -6.009226020018688E+07,
2461078.500000000, A.D. 2026-Feb-07 00:00:00.0000, -4.066828886409672E+08, -1.876768866691891E+08, -6.003804443720675E+07,
2461085.500000000, A.D. 2026-Feb-14 00:00:00.0000, -4.017976331592785E+08, -1.971327503068351E+08, -5.995224497509167E+07,
2461092.500000000, A.D. 2026-Feb-21 00:00:00.0000, -3.967005138593163E+08, -2.064846976021482E+08, -5.983483266948918E+07,
2461099.500000000, A.D. 2026-Feb-28 00:00:00.0000, -3.913937388290667E+08, -2.157275521642680E+08, -5.968579784032561E+07,
2461106.500000000, A.D. 2026-Mar-07 00:00:00.0000, -3.858796556142709E+08, -2.248561797403522E+08, -5.950515017394157E+07,
2461113.500000000, A.D. 2026-Mar-14 00:00:00.0000, -3.801607519628343E+08, -2.338654941215854E+08, -5.929291885561073E+07,
2461120.500000000, A.D. 2026-Mar-21 00:00:00.0000, -3.742396542902802E+08, -2.427504628539520E+08, -5.904915285868886E+07,
2461127.500000000, A.D. 2026-Mar-28 00:00:00.0000, -3.681191258742706E+08, -2.515061117158643E+08, -5.877392112102938E+07,
2461134.500000000, A.D. 2026-Apr-04 00:00:00.0000, -3.618020653799938E+08, -2.601275289193658E+08, -5.846731263115397E+07,
2461141.500000000, A.D. 2026-Apr-11 00:00:00.0000, -3.552915054414364E+08, -2.686098693867009E+08, -5.812943647800404E+07,
2461148.500000000, A.D. 2026-Apr-18 00:00:00.0000, -3.485906111393836E+08, -2.769483591008149E+08, -5.776042187893698E+07,
2461155.500000000, A.D. 2026-Apr-25 00:00:00.0000, -3.417026783309630E+08, -2.851382995063515E+08, -5.736041818839690E+07,
2461162.500000000, A.D. 2026-May-02 00:00:00.0000, -3.346311318006004E+08, -2.931750719816131E+08, -5.692959489176713E+07,
2461169.500000000, A.D. 2026-May-09 00:00:00.0000, -3.273795231082683E+08, -3.010541424386109E+08, -5.646814160049966E+07,
2461176.500000000, A.D. 2026-May-16 00:00:00.0000, -3.199515277578520E+08, -3.087710659041176E+08, -5.597626807127739E+07,
2461183.500000000, A.D. 2026-May-23 00:00:00.0000, -3.123509416351063E+08, -3.163214900508649E+08, -5.545420416999984E+07,
2461190.500000000, A.D. 2026-May-30 00:00:00.0000, -3.045816787952867E+08, -3.237011573510709E+08, -5.490219956366852E+07,
2461197.500000000, A.D. 2026-Jun-06 00:00:00.0000, -2.966477709203214E+08, -3.309059091187917E+08, -5.432052337893867E+07,
2461204.500000000, A.D. 2026-Jun-13 00:00:00.0000, -2.885533647844348E+08, -3.379316912362050E+08, -5.370946414820309E+07,
2461211.500000000, A.D. 2026-Jun-20 00:00:00.0000, -2.803027182354444E+08, -3.447745586307975E+08, -5.306932975890391E+07,
2461218.500000000, A.D. 2026-Jun-27 00:00:00.0000, -2.719001963959646E+08, -3.514306788351505E+08, -5.240044727852483E+07,
2461225.500000000, A.D. 2026-Jul-04 00:00:00.0000, -2.633502680901924E+08, -3.578963353958220E+08, -5.170316271894141E+07,
2461232.500000000, A.D. 2026-Jul-11 00:00:00.0000, -2.546575022480339E+08, -3.641679312551157E+08, -5.097784077458896E+07,
2461239.500000000, A.D. 2026-Jul-18 00:00:00.0000, -2.458265641998965E+08, -3.702419920720726E+08, -5.022486454121712E+07,
2461246.500000000, A.D. 2026-Jul-25 00:00:00.0000, -2.368622118437562E+08, -3.761151694719464E+08, -4.944463521745780E+07,
2461253.500000000, A.D. 2026-Aug-01 00:00:00.0000, -2.277692916419545E+08, -3.817842442646360E+08, -4.863757179771228E+07,
2461260.500000000, A.D. 2026-Aug-08 00:00:00.0000, -2.185527342382087E+08, -3.872461296617230E+08, -4.780411077946198E+07,
2461267.500000000, A.D. 2026-Aug-15 00:00:00.0000, -2.092175492861151E+08, -3.924978740372969E+08, -4.694470588722065E+07,
2461274.500000000, A.D. 2026-Aug-22 00:00:00.0000, -1.997688202580713E+08, -3.975366620075879E+08, -4.605982764472127E+07,
2461281.500000000, A.D. 2026-Aug-29 00:00:00.0000, -1.902117015323106E+08, -4.023598151981266E+08, -4.514996269870409E+07,
2461288.500000000, A.D. 2026-Sep-05 00:00:00.0000, -1.805514156332982E+08, -4.069647955631341E+08, -4.421561332550716E+07,
$$EOE